C/2019 K5 (Young),e,15.3181,177.1341,175.0488,163.2264,0.0004726,0.98751833,0.0000,06/23.0268/2019,2000,g 13.0,4.0
# From MPEC 2021-P47
C/2019 K6 (PANSTARRS),e,132.3836,42.9663,187.6350,1907,0.0000118,0.99794009,0.0000,05/20.2554/2020,2000,g 11.5,4.0
# From MPEC 2022-CN4
C/2019 K7 (Smith),h,06/17.2744/2020,103.5421,307.9356,27.3556,1.000305,4.476685,2000,6.0,4.0
# From MPEC 2021-R75
C/2019 K8 (ATLAS),e,93.1974,291.0458,85.3941,2554,0.0000076,0.99874910,0.0000,07/21.6734/2019,2000,g 11.5,4.0
# From MPC118095
C/2019 L1 (PANSTARRS),e,9.9880,254.4244,50.0073,9.841533,0.0319235,0.70590188,29.3276,02/15.0/2022,2000,g 13.5,4.0
# From MPC115886
C/2019 L2 (NEOWISE),e,152.2006,12.5579,18.7859,24.90813,0.0079285,0.93482716,8.3275,02/15.0/2022,2000,g 16.0,4.0
# From MPEC 2021-Y10
P/2019 LD2 (ATLAS),e,11.6171,179.5870,122.0644,5.246699,0.0820115,0.12834336,56.6639,02/15.0/2022,2000,g  8.5,4.0
# From MPEC 2022-CN4
C/2019 L3 (ATLAS),h,01/09.6239/2022,48.3608,290.7900,171.6116,1.001606,3.554479,2000,4.5,4.0
# From MPC118095
C/2019 LB7 (Kleyna),e,164.2913,3.8946,336.4895,34.56253,0.0048506,0.92809099,5.1246,02/15.0/2022,2000,g 17.0,4.0
# From MPC118843
P/2019 M2 (ATLAS),e,12.2791,307.6060,332.5782,3.027703,0.1870830,0.64791229,181.1976,02/15.0/2022,2000,g 21.2,4.0
# From MPC118095
C/2019 M3 (ATLAS),h,01/01.8805/2019,99.4833,154.9089,87.8861,1.000188,2.419261,2000,12.2,4.0
# From MPEC 2022-C56
C/2019 N1 (ATLAS),e,82.4288,13.5744,193.4420,3978,0.0000039,0.99957140,0.0000,12/01.7416/2020,2000,g  7.5,4.0
# From MPEC 2022-A21
C/2019 NJ3 (Lemmon),h,10/22.6014/2020,99.4371,142.4566,246.8819,1.001664,4.362272,2000,9.0,4.0
# From MPEC 2022-CN4
A/2019 O2,e,93.2943,48.2859,129.6632,57.46362,0.0022626,0.83149927,359.0570,02/15.0/2022,2000,g  9.5,2.0
# From MPEC 2022-CN4
C/2019 O3 (Palomar),h,03/08.8331/2021,89.8186,300.3910,60.0932,1.003472,8.819901,2000,3.5,4.0
# From MPEC 2021-P47
A/2019 O4,e,115.0942,354.9089,61.8712,33.05999,0.0051850,0.88971441,3.8144,02/15.0/2022,2000,g 15.5,2.0
# From MPEC 2021-N06
C/2019 Q1 (Lemmon),h,07/20.2382/2020,155.7248,42.4744,56.1393,1.000206,4.999342,2000,8.5,4.0
# From MPC117072
A/2019 Q2,e,159.0280,188.0147,176.3206,57.28422,0.0022733,0.97801604,0.0000,07/22.0862/2019,2000,g 18.0,2.0
# From MPC117072
C/2019 Q3 (PANSTARRS),h,08/21.5340/2018,65.5269,151.3241,152.7441,1.003277,7.259132,2000,8.5,4.0
# From MPC117072
P/2019 S2 (PANSTARRS),e,10.4704,93.1385,217.0413,4.739422,0.0955248,0.20645518,103.9904,02/15.0/2022,2000,g 13.5,4.0
# From MPEC 2022-CN4
P/2019 S3 (PANSTARRS),e,8.6948,150.1607,213.0055,3.415367,0.1561522,0.47115943,141.0763,02/15.0/2022,2000,g 18.3,4.0
# From MPEC 2021-S45
C/2019 S4 (Lemmon),e,92.0412,63.1556,71.3684,230.9461,0.0002808,0.98509423,0.0000,04/07.9122/2020,2000,g 11.0,4.0
# From MPEC 2021-W31
A/2019 T1,e,120.8734,6.9470,91.0593,38.44425,0.0041348,0.88861926,1.6394,02/15.0/2022,2000,g 13.0,2.0
# From MPEC 2022-C56
C/2019 T2 (Lemmon),e,111.4884,155.6434,239.4043,2319,0.0000088,0.99885902,0.0000,04/22.3344/2021,2000,g  9.0,4.0
# From MPEC 2022-C56
C/2019 T3 (ATLAS),e,121.8596,139.5235,112.3499,3520,0.0000047,0.99831029,0.0000,03/03.4395/2021,2000,g  6.8,4.0
# From MPEC 2022-CN4
C/2019 T4 (ATLAS),e,53.6264,199.9400,351.2051,1025,0.0000300,0.99586055,0.0000,06/09.1640/2022,2000,g  5.0,4.0
# From MPEC 2021-P47
P/2019 T5 (ATLAS),e,33.4494,247.6557,189.5662,7.996462,0.0435870,0.80918193,40.4816,02/15.0/2022,2000,g 15.0,4.0
# From MPEC 2021-P47
P/2019 T6 (PANSTARRS),e,18.6956,71.2685,328.9300,5.435492,0.0777760,0.62279500,64.5531,02/15.0/2022,2000,g 15.5,4.0
# From MPC118096
P/2019 U4 (PANSTARRS),e,11.6966,200.0041,180.9902,3.520515,0.1492089,0.47578357,131.3413,02/15.0/2022,2000,g 19.0,4.0
# From MPEC 2022-CN4
C/2019 U5 (PANSTARRS),h,03/30.0202/2023,113.5197,2.6393,181.5322,1.001129,3.623487,2000,4.5,4.0
# From MPEC 2021-P47
C/2019 U6 (Lemmon),e,60.9969,235.7087,329.6404,376.8809,0.0001347,0.99757413,0.0000,06/18.6933/2020,2000,g 10.0,4.0
# From MPC119998
C/2019 V1 (Borisov),e,61.8711,83.1879,51.1771,1502,0.0000169,0.99793768,0.0000,07/16.4181/2020,2000,g 11.0,4.0
# From MPEC 2021-P47
P/2019 V2 (Groeller),e,11.8068,189.1811,335.9116,7.507331,0.0479155,0.33135539,23.2002,02/15.0/2022,2000,g 10.0,4.0
# From MPC119998
P/2019 W1 (PANSTARRS),e,23.4676,35.3832,18.6905,4.549809,0.1015580,0.26663043,102.9822,02/15.0/2022,2000,g 12.9,4.0
# From MPEC 2021-P47
P/2019 X1 (Pruyne),e,10.2470,43.6778,36.7959,6.173288,0.0642583,0.30311074,60.3810,02/15.0/2022,2000,g 10.4,4.0
# From MPC119999
C/2019 Y1 (ATLAS),e,73.3061,31.5327,57.9499,85.75500,0.0012411,0.99031108,0.0000,03/15.6421/2020,2000,g 13.7,4.0
# From MPEC 2020-L06
C/2019 Y4 (ATLAS),h,05/31.0413/2020,45.7922,120.9498,177.2768,1.001398,0.251784,2000,11.6,6.0
# From MPEC 2020-L06
C/2019 Y4-A (ATLAS),h,05/31.0413/2020,45.7922,120.9498,177.2768,1.001398,0.251784,2000,11.6,6.0
# From MPEC 2020-L06
C/2019 Y4-B (ATLAS),e,45.4269,120.6455,177.4099,1392,0.0000190,0.99981807,0.0000,05/31.0195/2020,2000,g 12.8,6.0
# From MPEC 2020-L06
C/2019 Y4-C (ATLAS),h,05/30.9985/2020,45.5744,120.6757,177.3103,1.002118,0.252840,2000,12.7,6.0
# From MPEC 2020-L06
C/2019 Y4-D (ATLAS),e,45.6165,121.0551,177.4483,68.18429,0.0017506,0.99630096,0.0000,05/31.1181/2020,2000,g 12.5,6.0
# From MPEC 2021-P47
C/2019 Y5 (PANSTARRS),e,82.7959,51.7732,303.5205,808.5478,0.0000429,0.99392038,0.0000,08/18.2287/2019,2000,g 11.0,4.0
# From MPEC 2020-K19
A/2020 A1,e,149.0308,119.2731,302.5254,24.54832,0.0081035,0.93207697,6.5269,02/15.0/2022,2000,g 18.0,2.0
# From MPEC 2020-L06
C/2020 A2 (Iwamoto),e,120.7137,286.3611,68.1703,1345,0.0000200,0.99927402,0.0000,01/08.4832/2020,2000,g 13.5,4.0
# From MPEC 2020-L06
C/2020 A3 (ATLAS),h,07/29.8318/2019,146.7693,120.3842,271.1630,1.025995,5.837973,2000,8.0,4.0
# From MPEC 2020-L06
C/2020 B3 (Rankin),e,20.7095,185.8423,325.0049,1101,0.0000270,0.99696400,0.0000,10/19.4952/2019,2000,g 13.0,4.0
# From MPEC 2022-CN4
C/2020 F2 (ATLAS),h,07/15.9609/2022,163.5829,250.2658,48.3619,1.004657,8.817100,2000,4.5,4.0
# From MPEC 2021-O56
C/2020 F3 (NEOWISE),e,128.9859,61.0264,37.3008,341.1064,0.0001564,0.99913504,0.0000,07/03.6218/2020,2000,g  7.5,5.2
# From MPEC 2022-CN4
C/2020 F5 (MASTER),h,03/24.4913/2021,52.0743,350.5335,311.1673,1.005251,4.326348,2000,6.5,3.2
# From MPEC 2020-L06
C/2020 F6 (PANSTARRS),e,174.5828,207.8987,344.6154,411.1568,0.0001182,0.99146258,0.0000,04/11.7460/2020,2000,g 14.5,2.8
# From MPEC 2022-C56
C/2020 F7 (Lemmon),e,93.9521,321.8850,227.9655,671.4027,0.0000567,0.99205826,0.0000,11/13.9678/2021,2000,g  7.0,4.0
# From MPEC 2020-KB7
C/2020 F8 (SWAN),e,110.7396,259.9651,68.1801,267.3920,0.0002254,0.99839263,0.0000,05/27.5718/2020,2000,g 10.0,4.0
# From MPEC 2020-L06
P/2020 G1 (Pimentel),e,18.4869,240.0995,207.6348,3.609371,0.1437331,0.85998637,100.5619,02/15.0/2022,2000,g 17.0,4.0
# From MPEC 2020-L06
C/2020 H2 (Pruyne),e,125.0060,277.6505,26.7036,192.1140,0.0003701,0.99566281,0.0000,04/27.6931/2020,2000,g 18.0,4.0
# From MPEC 2020-HM1
C/2020 H3 (Wierzchos),p,06/05.7162/2020,62.5292,30.4456,2.300288,270.6227,2000,13.5,4.0
# From MPEC 2020-L06
C/2020 H4 (Leonard),e,84.5100,307.7234,117.5773,48.01797,0.0029621,0.98071154,0.0000,08/29.5558/2020,2000,g 15.0,3.2
# From MPEC 2022-CN4
C/2020 H5 (Robinson),e,70.2368,210.6294,326.3934,3512,0.0000047,0.99733945,0.0000,12/11.7693/2020,2000,g  5.0,4.0
# From MPEC 2022-CN4
C/2020 H6 (ATLAS),h,10/01.0432/2021,79.9717,213.7089,20.3434,1.000526,4.702868,2000,8.0,3.2
# From MPEC 2020-KB7
C/2020 H7 (Lemmon),e,135.9235,323.5194,82.6780,1405,0.0000187,0.99685380,0.0000,06/02.9510/2020,2000,g 11.0,4.0
# From MPEC 2021-N06
C/2020 H8 (PANSTARRS),e,99.6571,68.4099,128.9446,592.1947,0.0000684,0.99210438,0.0000,06/04.4780/2020,2000,g 10.5,4.0
# From MPEC 2020-L06
A/2020 H9,e,137.8856,213.1476,312.9169,574.3164,0.0000716,0.99550946,0.0000,12/21.5082/2019,2000,g 18.0,2.0
# From MPEC 2022-CN4
C/2020 J1 (SONEAR),h,04/18.6249/2021,142.2987,226.5850,341.7590,1.000587,3.355156,2000,8.5,3.2
# From MPEC 2022-CN4
C/2020 K1 (PANSTARRS),e,89.6603,94.3583,213.9726,17863,0.0000004,0.99982793,0.0000,05/09.0722/2023,2000,g  5.5,4.0
# From MPEC 2021-N06
C/2020 K2 (PANSTARRS),h,08/05.8970/2020,91.0376,288.3594,67.3290,1.003349,8.879065,2000,10.8,4.0
# From MPEC 2020-KF9
C/2020 K3 (Leonard),p,06/01.0032/2020,129.0152,64.4924,1.583069,28.3546,2000,14.5,4.0
# From MPEC 2020-L06
C/2020 K4 (PANSTARRS),e,125.5723,264.1225,308.8122,23.90719,0.0084316,0.92663094,6.0141,02/15.0/2022,2000,g 16.5,4.0
# From MPEC 2021-R75
C/2020 K5 (PANSTARRS),h,06/05.5708/2021,67.1482,86.1662,249.5937,1.001481,1.535797,2000,11.0,4.0
# From MPEC 2021-W31
C/2020 K6 (Rankin),h,09/15.5977/2021,103.6458,291.5295,44.3103,1.003204,5.868437,2000,8.0,4.0
# From MPEC 2021-S45
C/2020 K7 (PANSTARRS),e,32.0403,286.0705,358.2395,101.3424,0.0009661,0.93695248,0.8117,02/15.0/2022,2000,g  8.0,4.0
# From MPEC 2021-P47
C/2020 K8 (Catalina-ATLAS),h,09/14.5604/2020,31.4251,181.5357,260.0091,1.000153,0.473791,2000,15.0,3.2
# From MPEC 2021-BE3
P/2020 K9 (Lemmon-PANSTARRS),e,23.2098,166.2402,196.9317,4.199731,0.1145175,0.32139526,42.1394,02/15.0/2022,2000,g 12.5,4.0
# From MPEC 2021-U31
P/2020 M1 (PANSTARRS),e,8.6164,142.8118,71.8089,5.296200,0.0808644,0.47988468,62.8401,02/15.0/2022,2000,g 14.5,4.0
# From MPEC 2021-N06
C/2020 M3 (ATLAS),e,23.4716,71.2237,328.4746,26.94330,0.0070474,0.95293551,3.3638,02/15.0/2022,2000,g 14.5,4.0
# From MPEC 2022-CN4
A/2020 M4,h,11/24.1040/2020,160.1273,348.6219,104.6532,1.000120,5.952634,2000,14.5,2.0
# From MPEC 2022-CN4
C/2020 M5 (ATLAS),h,08/19.8751/2021,93.2240,352.0938,126.3359,1.000261,3.004287,2000,9.0,4.0
# From MPEC 2021-N06
C/2020 N1 (PANSTARRS),h,03/12.2189/2021,29.7049,279.9710,186.7618,1.000488,1.320329,2000,12.5,4.0
# From MPEC 2021-P47
C/2020 N2 (ATLAS),e,161.0352,257.1003,331.2713,102.8934,0.0009443,0.98256122,0.0000,08/23.7799/2020,2000,g 16.0,3.2
# From MPEC 2020-SI8
P/2020 O1 (Lemmon-PANSTARRS),e,5.2259,175.9763,104.5259,2.644702,0.2291600,0.11932984,149.7501,02/15.0/2022,2000,g 15.5,4.0
# From MPEC 2022-CN4
